ONEWEB-0056             
1 45159U 20008AE  25181.81912921 -.00000638  00000+0 -18646-2 0  9999
2 45159  87.8826 106.3346 0001923  77.1852 282.9491 13.10376192262168
ONEWEB-0057             
1 45160U 20008AF  25181.82659227 -.00000500  00000+0 -14697-2 0  9999
2 45160  87.8829 106.3463 0001776  77.8820 282.2507 13.10375427262331
ONEWEB-0058             
1 45161U 20008AG  25181.81344805 -.00000579  00000+0 -16963-2 0  9996
2 45161  87.8822 106.3617 0002088  81.6559 278.4805 13.10371290262405
ONEWEB-0059             
1 45162U 20008AH  25181.80999585 -.00000473  00000+0 -13920-2 0  9990
2 45162  87.8825 106.3596 0002072  79.6385 280.4976 13.10370241262308
ONEWEB-0062             
1 45163U 20008AJ  25181.83573171  .00000110  00000+0  27844-3 0  9990
2 45163  87.8831 106.3346 0002350  73.6053 286.5332 13.10376847262170
ONEWEB-0065             
1 45164U 20008AK  25181.81496463 -.00000558  00000+0 -16355-2 0  9999
2 45164  87.8830 106.3619 0001690  72.7881 287.3431 13.10370834261862
ONEWEB-0066             
1 45424U 20020A   25181.80006401  .00000262  00000+0  70469-3 0  9997
2 45424  87.8840  91.1016 0001920  88.9943 271.1405 13.11418664256623
ONEWEB-0067             
1 45425U 20020B   25181.76120327 -.00000212  00000+0 -63419-3 0  9991
2 45425  87.8824  91.0238 0001795  82.9341 277.1991 13.11415048256671
